start=new Date('2022-02-28T00:00:00.000Z').valueOf();
sats=[{"PERIOD":"95.592","ECCENTRICITY":"0.00017890","CENTER_NAME":"EARTH","TLE_LINE1":"1 47813U 21018AC  22058.81751023  .00001553  00000-0  12312-3 0  9995","MEAN_ANOMALY":"298.9743","GP_ID":"197285241","SEMIMAJOR_AXIS":"6925.353","REV_AT_EPOCH":"5523","ELEMENT_SET_NO":"999","SITE":"AFETR","RCS_SIZE":"LARGE","OBJECT_NAME":"STARLINK-2394","MEAN_MOTION":"15.06398537","EPHEMERIS_TYPE":"0","TIME_SYSTEM":"UTC","CLASSIFICATION_TYPE":"U","COUNTRY_CODE":"US","NORAD_CAT_ID":"47813","MEAN_ELEMENT_THEORY":"SGP4","REF_FRAME":"TEME","RA_OF_ASC_NODE":"354.6232","TLE_LINE2":"2 47813  53.0556 354.6232 0001789  61.1425 298.9743 15.06398537 55232","PERIAPSIS":"545.979","OBJECT_TYPE":"PAYLOAD","LAUNCH_DATE":"2021-03-11","ARG_OF_PERICENTER":"61.1425","MEAN_MOTION_DOT":"0.00001553","FILE":"3331200","DECAY_DATE":null,"INCLINATION":"53.0556","OBJECT_ID":"2021-018AC","EPOCH":"2022-02-27T19:37:12.883872","BSTAR":"0.00012312000000","MEAN_MOTION_DDOT":"0.0000000000000","APOAPSIS":"548.457"},{"CLASSIFICATION_TYPE":"U","COUNTRY_CODE":"US","TIME_SYSTEM":"UTC","EPHEMERIS_TYPE":"0","SITE":"AFETR","MEAN_MOTION":"15.06393147","OBJECT_NAME":"STARLINK-2395","RCS_SIZE":"MEDIUM","ELEMENT_SET_NO":"999","REV_AT_EPOCH":"5492","GP_ID":"197286493","SEMIMAJOR_AXIS":"6925.370","TLE_LINE1":"1 47814U 21018AD  22058.57608181  .00001380  00000-0  11155-3 0  9997","ECCENTRICITY":"0.00018530","CENTER_NAME":"EARTH","MEAN_ANOMALY":"303.8650","PERIOD":"95.593","MEAN_MOTION_DDOT":"0.0000000000000","APOAPSIS":"548.518","EPOCH":"2022-02-27T13:49:33.468384","OBJECT_ID":"2021-018AD","BSTAR":"0.00011155000000","FILE":"3331200","INCLINATION":"53.0565","DECAY_DATE":null,"MEAN_MOTION_DOT":"0.00001380","LAUNCH_DATE":"2021-03-11","ARG_OF_PERICENTER":"56.2515","PERIAPSIS":"545.951","OBJECT_TYPE":"PAYLOAD","RA_OF_ASC_NODE":"15.7105","REF_FRAME":"TEME","TLE_LINE2":"2 47814  53.0565  15.7105 0001853  56.2515 303.8650 15.06393147 54924","NORAD_CAT_ID":"47814","MEAN_ELEMENT_THEORY":"SGP4"},{"LAUNCH_DATE":"2021-03-11","ARG_OF_PERICENTER":"50.9052","MEAN_MOTION_DOT":"0.00001897","FILE":"3331200","DECAY_DATE":null,"INCLINATION":"53.0556","OBJECT_ID":"2021-018AE","EPOCH":"2022-02-27T20:57:28.906272","BSTAR":"0.00014622000000","MEAN_MOTION_DDOT":"0.0000000000000","APOAPSIS":"548.560","NORAD_CAT_ID":"47815","MEAN_ELEMENT_THEORY":"SGP4","RA_OF_ASC_NODE":"9.3723","REF_FRAME":"TEME","TLE_LINE2":"2 47815  53.0556   9.3723 0001970  50.9052 309.2112 15.06405848 54977","PERIAPSIS":"545.831","OBJECT_TYPE":"PAYLOAD","SITE":"AFETR","RCS_SIZE":"LARGE","OBJECT_NAME":"STARLINK-2396","MEAN_MOTION":"15.06405848","EPHEMERIS_TYPE":"0","TIME_SYSTEM":"UTC","CLASSIFICATION_TYPE":"U","COUNTRY_CODE":"US","PERIOD":"95.592","ECCENTRICITY":"0.00019700","CENTER_NAME":"EARTH","TLE_LINE1":"1 47815U 21018AE  22058.87325123  .00001897  00000-0  14622-3 0  9998","MEAN_ANOMALY":"309.2112","GP_ID":"197286243","SEMIMAJOR_AXIS":"6925.331","REV_AT_EPOCH":"5497","ELEMENT_SET_NO":"999"},{"MEAN_MOTION_DOT":"0.00001432","ARG_OF_PERICENTER":"56.7002","LAUNCH_DATE":"2021-03-11","FILE":"3331200","INCLINATION":"53.0574","DECAY_DATE":null,"EPOCH":"2022-02-27T21:10:05.352096","OBJECT_ID":"2021-018AF","BSTAR":"0.00011499000000","MEAN_MOTION_DDOT":"0.0000000000000","APOAPSIS":"548.351","NORAD_CAT_ID":"47816","MEAN_ELEMENT_THEORY":"SGP4","RA_OF_ASC_NODE":"14.3394","REF_FRAME":"TEME","TLE_LINE2":"2 47816  53.0574  14.3394 0001643  56.7002 303.4144 15.06400017 54901","PERIAPSIS":"546.076","OBJECT_TYPE":"PAYLOAD","SITE":"AFETR","MEAN_MOTION":"15.06400017","OBJECT_NAME":"STARLINK-2399","RCS_SIZE":"LARGE","EPHEMERIS_TYPE":"0","TIME_SYSTEM":"UTC","CLASSIFICATION_TYPE":"U","COUNTRY_CODE":"US","PERIOD":"95.592","TLE_LINE1":"1 47816U 21018AF  22058.88200639  .00001432  00000-0  11499-3 0  9998","CENTER_NAME":"EARTH","ECCENTRICITY":"0.00016430","MEAN_ANOMALY":"303.4144","REV_AT_EPOCH":"5490","SEMIMAJOR_AXIS":"6925.349","GP_ID":"197285492","ELEMENT_SET_NO":"999"},{"OBJECT_TYPE":"PAYLOAD","PERIAPSIS":"545.915","MEAN_ELEMENT_THEORY":"SGP4","NORAD_CAT_ID":"47817","TLE_LINE2":"2 47817  53.0574  14.2446 0001879  66.9337 293.1850 15.06399056 54903","RA_OF_ASC_NODE":"14.2446","REF_FRAME":"TEME","BSTAR":"0.00023384000000","EPOCH":"2022-02-27T21:36:39.127104","OBJECT_ID":"2021-018AG","APOAPSIS":"548.518","MEAN_MOTION_DDOT":"0.0000000000000","ARG_OF_PERICENTER":"66.9337","LAUNCH_DATE":"2021-03-11","MEAN_MOTION_DOT":"0.00003203","DECAY_DATE":null,"INCLINATION":"53.0574","FILE":"3331200","GP_ID":"197285742","SEMIMAJOR_AXIS":"6925.351","REV_AT_EPOCH":"5490","ELEMENT_SET_NO":"999","PERIOD":"95.592","MEAN_ANOMALY":"293.1850","CENTER_NAME":"EARTH","ECCENTRICITY":"0.00018790","TLE_LINE1":"1 47817U 21018AG  22058.90045286  .00003203  00000-0  23384-3 0  9991","TIME_SYSTEM":"UTC","COUNTRY_CODE":"US","CLASSIFICATION_TYPE":"U","RCS_SIZE":"LARGE","OBJECT_NAME":"STARLINK-2400","MEAN_MOTION":"15.06399056","SITE":"AFETR","EPHEMERIS_TYPE":"0"},{"OBJECT_TYPE":"PAYLOAD","PERIAPSIS":"545.750","TLE_LINE2":"2 47818  53.0572  19.4319 0002088  59.1690 300.9504 15.06405721 54839","REF_FRAME":"TEME","RA_OF_ASC_NODE":"19.4319","MEAN_ELEMENT_THEORY":"SGP4","NORAD_CAT_ID":"47818","APOAPSIS":"548.642","MEAN_MOTION_DDOT":"0.0000000000000","BSTAR":"0.00007964100000","EPOCH":"2022-02-27T20:40:14.220480","OBJECT_ID":"2021-018AH","DECAY_DATE":null,"INCLINATION":"53.0572","FILE":"3331200","LAUNCH_DATE":"2021-03-11","ARG_OF_PERICENTER":"59.1690","MEAN_MOTION_DOT":"0.00000905","ELEMENT_SET_NO":"999","SEMIMAJOR_AXIS":"6925.331","GP_ID":"197285993","REV_AT_EPOCH":"5483","MEAN_ANOMALY":"300.9504","CENTER_NAME":"EARTH","ECCENTRICITY":"0.00020880","TLE_LINE1":"1 47818U 21018AH  22058.86127570  .00000905  00000-0  79641-4 0  9998","PERIOD":"95.592","COUNTRY_CODE":"US","CLASSIFICATION_TYPE":"U","TIME_SYSTEM":"UTC","EPHEMERIS_TYPE":"0","RCS_SIZE":"LARGE","OBJECT_NAME":"STARLINK-2401","MEAN_MOTION":"15.06405721","SITE":"AFETR"},{"APOAPSIS":"548.484","MEAN_MOTION_DDOT":"0.0000000000000","BSTAR":"0.00006972200000","EPOCH":"2022-02-27T21:41:56.524416","OBJECT_ID":"2021-018AJ","INCLINATION":"53.0558","DECAY_DATE":null,"FILE":"3331200","MEAN_MOTION_DOT":"0.00000757","ARG_OF_PERICENTER":"51.3576","LAUNCH_DATE":"2021-03-11","OBJECT_TYPE":"PAYLOAD","PERIAPSIS":"545.951","TLE_LINE2":"2 47819  53.0558  14.2369 0001829  51.3576 308.7577 15.06398716 54977","RA_OF_ASC_NODE":"14.2369","REF_FRAME":"TEME","MEAN_ELEMENT_THEORY":"SGP4","NORAD_CAT_ID":"47819","COUNTRY_CODE":"US","CLASSIFICATION_TYPE":"U","TIME_SYSTEM":"UTC","EPHEMERIS_TYPE":"0","OBJECT_NAME":"STARLINK-2402","MEAN_MOTION":"15.06398716","RCS_SIZE":"LARGE","SITE":"AFETR","ELEMENT_SET_NO":"999","REV_AT_EPOCH":"5497","SEMIMAJOR_AXIS":"6925.352","GP_ID":"197286744","MEAN_ANOMALY":"308.7577","TLE_LINE1":"1 47819U 21018AJ  22058.90412644  .00000757  00000-0  69722-4 0  9997","ECCENTRICITY":"0.00018290","CENTER_NAME":"EARTH","PERIOD":"95.592"},{"PERIOD":"95.591","MEAN_ANOMALY":"297.9390","CENTER_NAME":"EARTH","ECCENTRICITY":"0.00018690","TLE_LINE1":"1 47820U 21018AK  22058.81842904  .00009276  00000-0  64059-3 0  9997","SEMIMAJOR_AXIS":"6925.309","GP_ID":"197284992","REV_AT_EPOCH":"5481","ELEMENT_SET_NO":"999","RCS_SIZE":"LARGE","MEAN_MOTION":"15.06412907","OBJECT_NAME":"STARLINK-2403","SITE":"AFETR","EPHEMERIS_TYPE":"0","TIME_SYSTEM":"UTC","COUNTRY_CODE":"US","CLASSIFICATION_TYPE":"U","MEAN_ELEMENT_THEORY":"SGP4","NORAD_CAT_ID":"47820","TLE_LINE2":"2 47820  53.0538  24.6293 0001869  62.1788 297.9390 15.06412907 54811","REF_FRAME":"TEME","RA_OF_ASC_NODE":"24.6293","OBJECT_TYPE":"PAYLOAD","PERIAPSIS":"545.880","ARG_OF_PERICENTER":"62.1788","LAUNCH_DATE":"2021-03-11","MEAN_MOTION_DOT":"0.00009276","DECAY_DATE":null,"INCLINATION":"53.0538","FILE":"3331200","BSTAR":"0.00064059000000","OBJECT_ID":"2021-018AK","EPOCH":"2022-02-27T19:38:32.269056","APOAPSIS":"548.468","MEAN_MOTION_DDOT":"0.0000000000000"},{"COUNTRY_CODE":"US","CLASSIFICATION_TYPE":"U","TIME_SYSTEM":"UTC","EPHEMERIS_TYPE":"0","RCS_SIZE":"LARGE","MEAN_MOTION":"15.06398392","OBJECT_NAME":"STARLINK-2406","SITE":"AFETR","ELEMENT_SET_NO":"999","SEMIMAJOR_AXIS":"6925.353","GP_ID":"197285242","REV_AT_EPOCH":"5490","MEAN_ANOMALY":"291.6954","ECCENTRICITY":"0.00015590","CENTER_NAME":"EARTH","TLE_LINE1":"1 47821U 21018AL  22058.86263702  .00001247  00000-0  10257-3 0  9997","PERIOD":"95.592","APOAPSIS":"548.298","MEAN_MOTION_DDOT":"0.0000000000000","BSTAR":"0.00010257000000","EPOCH":"2022-02-27T20:42:11.838528","OBJECT_ID":"2021-018AL","DECAY_DATE":null,"INCLINATION":"53.0557","FILE":"3331200","LAUNCH_DATE":"2021-03-11","ARG_OF_PERICENTER":"68.4201","MEAN_MOTION_DOT":"0.00001247","OBJECT_TYPE":"PAYLOAD","PERIAPSIS":"546.139","TLE_LINE2":"2 47821  53.0557  14.4231 0001559  68.4201 291.6954 15.06398392 54905","REF_FRAME":"TEME","RA_OF_ASC_NODE":"14.4231","MEAN_ELEMENT_THEORY":"SGP4","NORAD_CAT_ID":"47821"},{"OBJECT_TYPE":"PAYLOAD","PERIAPSIS":"545.824","TLE_LINE2":"2 47822  53.0560  25.5608 0002032  52.2781 307.8391 15.06394372 54732","REF_FRAME":"TEME","RA_OF_ASC_NODE":"25.5608","MEAN_ELEMENT_THEORY":"SGP4","NORAD_CAT_ID":"47822","APOAPSIS":"548.638","MEAN_MOTION_DDOT":"0.0000000000000","BSTAR":"-0.00003534300000","EPOCH":"2022-02-27T14:36:00.077472","OBJECT_ID":"2021-018AM","INCLINATION":"53.0560","DECAY_DATE":null,"FILE":"3331200","MEAN_MOTION_DOT":"-0.00000808","LAUNCH_DATE":"2021-03-11","ARG_OF_PERICENTER":"52.2781","ELEMENT_SET_NO":"999","REV_AT_EPOCH":"5473","GP_ID":"197286494","SEMIMAJOR_AXIS":"6925.366","MEAN_ANOMALY":"307.8391","TLE_LINE1":"1 47822U 21018AM  22058.60833423 -.00000808  00000-0 -35343-4 0  9991","ECCENTRICITY":"0.00020320","CENTER_NAME":"EARTH","PERIOD":"95.592","COUNTRY_CODE":"US","CLASSIFICATION_TYPE":"U","TIME_SYSTEM":"UTC","EPHEMERIS_TYPE":"0","OBJECT_NAME":"STARLINK-2407","MEAN_MOTION":"15.06394372","RCS_SIZE":"LARGE","SITE":"AFETR"}];
